start=new Date('2022-07-21T00:00:00.000Z').valueOf();
sats=[{"EPHEMERIS_TYPE":"0","NORAD_CAT_ID":"51971","MEAN_ANOMALY":"273.1062","ELEMENT_SET_NO":"999","MEAN_ELEMENT_THEORY":"SGP4","FILE":"3518363","OBJECT_NAME":"STARLINK-3669","RA_OF_ASC_NODE":"229.7128","APOAPSIS":"541.088","GP_ID":"208535757","TLE_LINE2":"2 51971  53.2169 229.7128 0001892  36.4038 273.1062 15.08828923  1307","CENTER_NAME":"EARTH","DECAY_DATE":null,"MEAN_MOTION":"15.08828923","TIME_SYSTEM":"UTC","REF_FRAME":"TEME","MEAN_MOTION_DDOT":"0.0000000000000","RCS_SIZE":"LARGE","PERIAPSIS":"538.470","OBJECT_TYPE":"PAYLOAD","BSTAR":"0.00089938000000","MEAN_MOTION_DOT":"0.00014050","ARG_OF_PERICENTER":"36.4038","SEMIMAJOR_AXIS":"6917.914","LAUNCH_DATE":"2022-03-09","INCLINATION":"53.2169","COUNTRY_CODE":"US","REV_AT_EPOCH":"130","SITE":"AFETR","CLASSIFICATION_TYPE":"U","TLE_LINE1":"1 51971U 22025R   22201.91668981  .00014050  00000-0  89938-3 0  9999","OBJECT_ID":"2022-025R","EPOCH":"2022-07-20T22:00:01.999584","PERIOD":"95.438","ECCENTRICITY":"0.00018920"},{"RA_OF_ASC_NODE":"229.7083","OBJECT_NAME":"STARLINK-3671","APOAPSIS":"540.852","NORAD_CAT_ID":"51972","EPHEMERIS_TYPE":"0","FILE":"3518342","MEAN_ANOMALY":"1.3398","ELEMENT_SET_NO":"999","MEAN_ELEMENT_THEORY":"SGP4","REF_FRAME":"TEME","TIME_SYSTEM":"UTC","MEAN_MOTION_DDOT":"0.0000000000000","DECAY_DATE":null,"MEAN_MOTION":"15.08807655","CENTER_NAME":"EARTH","TLE_LINE2":"2 51972  53.2174 229.7083 0001456  48.1722   1.3398 15.08807655 21854","GP_ID":"208512345","SEMIMAJOR_AXIS":"6917.979","LAUNCH_DATE":"2022-03-09","RCS_SIZE":"LARGE","ARG_OF_PERICENTER":"48.1722","OBJECT_TYPE":"PAYLOAD","PERIAPSIS":"538.837","BSTAR":"0.00272840000000","MEAN_MOTION_DOT":"0.00043363","SITE":"AFETR","CLASSIFICATION_TYPE":"U","TLE_LINE1":"1 51972U 22025S   22201.91668981  .00043363  00000-0  27284-2 0  9994","REV_AT_EPOCH":"2185","ECCENTRICITY":"0.00014560","PERIOD":"95.440","OBJECT_ID":"2022-025S","EPOCH":"2022-07-20T22:00:01.999584","COUNTRY_CODE":"US","INCLINATION":"53.2174"},{"RA_OF_ASC_NODE":"229.7092","OBJECT_NAME":"STARLINK-3679","APOAPSIS":"540.932","NORAD_CAT_ID":"51973","EPHEMERIS_TYPE":"0","FILE":"3518363","MEAN_ELEMENT_THEORY":"SGP4","MEAN_ANOMALY":"321.0652","ELEMENT_SET_NO":"999","MEAN_MOTION_DDOT":"0.0000000000000","TIME_SYSTEM":"UTC","REF_FRAME":"TEME","DECAY_DATE":null,"MEAN_MOTION":"15.08817201","TLE_LINE2":"2 51973  53.2156 229.7092 0001615  48.5295 321.0652 15.08817201  1302","CENTER_NAME":"EARTH","GP_ID":"208536759","LAUNCH_DATE":"2022-03-09","SEMIMAJOR_AXIS":"6917.950","RCS_SIZE":"LARGE","ARG_OF_PERICENTER":"48.5295","BSTAR":"0.00035313000000","OBJECT_TYPE":"PAYLOAD","PERIAPSIS":"538.698","MEAN_MOTION_DOT":"0.00005333","TLE_LINE1":"1 51973U 22025T   22201.91668981  .00005333  00000-0  35313-3 0  9993","SITE":"AFETR","CLASSIFICATION_TYPE":"U","REV_AT_EPOCH":"130","ECCENTRICITY":"0.00016150","PERIOD":"95.439","OBJECT_ID":"2022-025T","EPOCH":"2022-07-20T22:00:01.999584","COUNTRY_CODE":"US","INCLINATION":"53.2156"},{"MEAN_ANOMALY":"25.4532","ELEMENT_SET_NO":"999","MEAN_ELEMENT_THEORY":"SGP4","FILE":"3518336","EPHEMERIS_TYPE":"0","NORAD_CAT_ID":"51974","APOAPSIS":"541.082","OBJECT_NAME":"STARLINK-3672","RA_OF_ASC_NODE":"229.7161","GP_ID":"208512571","TLE_LINE2":"2 51974  53.2155 229.7161 0001822  44.0787  25.4532 15.08815236 21834","CENTER_NAME":"EARTH","DECAY_DATE":null,"MEAN_MOTION":"15.08815236","TIME_SYSTEM":"UTC","REF_FRAME":"TEME","MEAN_MOTION_DDOT":"0.0000000000000","OBJECT_TYPE":"PAYLOAD","BSTAR":"0.00113250000000","PERIAPSIS":"538.561","MEAN_MOTION_DOT":"0.00017770","ARG_OF_PERICENTER":"44.0787","RCS_SIZE":"LARGE","SEMIMAJOR_AXIS":"6917.956","LAUNCH_DATE":"2022-03-09","INCLINATION":"53.2155","COUNTRY_CODE":"US","EPOCH":"2022-07-20T22:00:01.999584","OBJECT_ID":"2022-025U","ECCENTRICITY":"0.00018220","PERIOD":"95.439","REV_AT_EPOCH":"2183","CLASSIFICATION_TYPE":"U","SITE":"AFETR","TLE_LINE1":"1 51974U 22025U   22201.91668981  .00017770  00000-0  11325-2 0  9998"},{"SEMIMAJOR_AXIS":"6918.003","LAUNCH_DATE":"2022-03-09","ARG_OF_PERICENTER":"46.5770","MEAN_MOTION_DOT":"0.00041951","OBJECT_TYPE":"PAYLOAD","PERIAPSIS":"538.760","BSTAR":"0.00264120000000","RCS_SIZE":"LARGE","ECCENTRICITY":"0.00016020","PERIOD":"95.440","OBJECT_ID":"2022-025V","EPOCH":"2022-07-20T22:00:01.999584","CLASSIFICATION_TYPE":"U","SITE":"AFETR","TLE_LINE1":"1 51975U 22025V   22201.91668981  .00041951  00000-0  26412-2 0  9990","REV_AT_EPOCH":"2186","COUNTRY_CODE":"US","INCLINATION":"53.2159","APOAPSIS":"540.976","RA_OF_ASC_NODE":"229.7093","OBJECT_NAME":"STARLINK-3674","FILE":"3518336","MEAN_ANOMALY":"17.7344","ELEMENT_SET_NO":"999","MEAN_ELEMENT_THEORY":"SGP4","NORAD_CAT_ID":"51975","EPHEMERIS_TYPE":"0","TIME_SYSTEM":"UTC","REF_FRAME":"TEME","MEAN_MOTION_DDOT":"0.0000000000000","DECAY_DATE":null,"MEAN_MOTION":"15.08799886","CENTER_NAME":"EARTH","TLE_LINE2":"2 51975  53.2159 229.7093 0001602  46.5770  17.7344 15.08799886 21868","GP_ID":"208512575"},{"RCS_SIZE":"LARGE","OBJECT_TYPE":"PAYLOAD","PERIAPSIS":"538.604","MEAN_MOTION_DOT":"0.00022007","BSTAR":"0.00139790000000","ARG_OF_PERICENTER":"44.4807","SEMIMAJOR_AXIS":"6917.992","LAUNCH_DATE":"2022-03-09","INCLINATION":"53.2186","COUNTRY_CODE":"US","REV_AT_EPOCH":"130","SITE":"AFETR","CLASSIFICATION_TYPE":"U","TLE_LINE1":"1 51976U 22025W   22201.91668981  .00022007  00000-0  13979-2 0  9996","EPOCH":"2022-07-20T22:00:01.999584","OBJECT_ID":"2022-025W","ECCENTRICITY":"0.00018110","PERIOD":"95.440","EPHEMERIS_TYPE":"0","NORAD_CAT_ID":"51976","ELEMENT_SET_NO":"999","MEAN_ANOMALY":"30.0539","MEAN_ELEMENT_THEORY":"SGP4","FILE":"3518363","OBJECT_NAME":"STARLINK-3663","RA_OF_ASC_NODE":"239.7211","APOAPSIS":"541.110","GP_ID":"208536008","CENTER_NAME":"EARTH","TLE_LINE2":"2 51976  53.2186 239.7211 0001811  44.4807  30.0539 15.08803451  1307","DECAY_DATE":null,"MEAN_MOTION":"15.08803451","TIME_SYSTEM":"UTC","REF_FRAME":"TEME","MEAN_MOTION_DDOT":"0.0000000000000"},{"LAUNCH_DATE":"2022-03-09","SEMIMAJOR_AXIS":"6917.937","ARG_OF_PERICENTER":"56.6648","OBJECT_TYPE":"PAYLOAD","BSTAR":"0.00244550000000","PERIAPSIS":"538.812","MEAN_MOTION_DOT":"0.00038827","RCS_SIZE":"LARGE","ECCENTRICITY":"0.00014310","PERIOD":"95.439","OBJECT_ID":"2022-025X","EPOCH":"2022-07-20T22:00:01.999584","TLE_LINE1":"1 51977U 22025X   22201.91668981  .00038827  00000-0  24455-2 0  9995","SITE":"AFETR","CLASSIFICATION_TYPE":"U","REV_AT_EPOCH":"130","COUNTRY_CODE":"US","INCLINATION":"53.2148","APOAPSIS":"540.792","RA_OF_ASC_NODE":"219.7311","OBJECT_NAME":"STARLINK-3660","FILE":"3518363","MEAN_ELEMENT_THEORY":"SGP4","ELEMENT_SET_NO":"999","MEAN_ANOMALY":"27.8463","NORAD_CAT_ID":"51977","EPHEMERIS_TYPE":"0","MEAN_MOTION_DDOT":"0.0000000000000","REF_FRAME":"TEME","TIME_SYSTEM":"UTC","DECAY_DATE":null,"MEAN_MOTION":"15.08821599","TLE_LINE2":"2 51977  53.2148 219.7311 0001431  56.6648  27.8463 15.08821599  1304","CENTER_NAME":"EARTH","GP_ID":"208536259"},{"RA_OF_ASC_NODE":"239.7149","OBJECT_NAME":"STARLINK-3666","APOAPSIS":"540.722","NORAD_CAT_ID":"51978","EPHEMERIS_TYPE":"0","FILE":"3518363","MEAN_ANOMALY":"74.3176","ELEMENT_SET_NO":"999","MEAN_ELEMENT_THEORY":"SGP4","REF_FRAME":"TEME","TIME_SYSTEM":"UTC","MEAN_MOTION_DDOT":"0.0000000000000","MEAN_MOTION":"15.08832919","DECAY_DATE":null,"CENTER_NAME":"EARTH","TLE_LINE2":"2 51978  53.2149 239.7149 0001380  60.1925  74.3176 15.08832919  1304","GP_ID":"208537010","SEMIMAJOR_AXIS":"6917.902","LAUNCH_DATE":"2022-03-09","RCS_SIZE":"LARGE","ARG_OF_PERICENTER":"60.1925","PERIAPSIS":"538.812","OBJECT_TYPE":"PAYLOAD","MEAN_MOTION_DOT":"-0.00012378","BSTAR":"-0.00076108000000","SITE":"AFETR","CLASSIFICATION_TYPE":"U","TLE_LINE1":"1 51978U 22025Y   22201.91668981 -.00012378  00000-0 -76108-3 0  9994","REV_AT_EPOCH":"130","PERIOD":"95.438","ECCENTRICITY":"0.00013800","EPOCH":"2022-07-20T22:00:01.999584","OBJECT_ID":"2022-025Y","COUNTRY_CODE":"US","INCLINATION":"53.2149"},{"LAUNCH_DATE":"2022-03-09","SEMIMAJOR_AXIS":"6917.919","OBJECT_TYPE":"PAYLOAD","BSTAR":"0.00205990000000","PERIAPSIS":"538.235","MEAN_MOTION_DOT":"0.00032637","ARG_OF_PERICENTER":"47.5581","RCS_SIZE":"LARGE","EPOCH":"2022-07-20T22:00:01.999584","OBJECT_ID":"2022-025Z","PERIOD":"95.438","ECCENTRICITY":"0.00022390","REV_AT_EPOCH":"130","TLE_LINE1":"1 51979U 22025Z   22201.91668981  .00032637  00000-0  20599-2 0  9995","SITE":"AFETR","CLASSIFICATION_TYPE":"U","INCLINATION":"53.2167","COUNTRY_CODE":"US","APOAPSIS":"541.332","OBJECT_NAME":"STARLINK-3656","RA_OF_ASC_NODE":"239.7260","MEAN_ELEMENT_THEORY":"SGP4","ELEMENT_SET_NO":"999","MEAN_ANOMALY":"6.9089","FILE":"3518363","EPHEMERIS_TYPE":"0","NORAD_CAT_ID":"51979","DECAY_DATE":null,"MEAN_MOTION":"15.08827507","MEAN_MOTION_DDOT":"0.0000000000000","TIME_SYSTEM":"UTC","REF_FRAME":"TEME","GP_ID":"208535758","CENTER_NAME":"EARTH","TLE_LINE2":"2 51979  53.2167 239.7260 0002239  47.5581   6.9089 15.08827507  1301"},{"GP_ID":"208507409","CENTER_NAME":"EARTH","TLE_LINE2":"2 51980  53.2146 239.7167 0001367  58.2831 116.2787 15.08814446 21708","MEAN_MOTION":"15.08814446","DECAY_DATE":null,"MEAN_MOTION_DDOT":"0.0000000000000","TIME_SYSTEM":"UTC","REF_FRAME":"TEME","MEAN_ELEMENT_THEORY":"SGP4","MEAN_ANOMALY":"116.2787","ELEMENT_SET_NO":"999","FILE":"3518130","EPHEMERIS_TYPE":"0","NORAD_CAT_ID":"51980","APOAPSIS":"540.769","OBJECT_NAME":"STARLINK-3649","RA_OF_ASC_NODE":"239.7167","INCLINATION":"53.2146","COUNTRY_CODE":"US","EPOCH":"2022-07-20T22:00:01.999584","OBJECT_ID":"2022-025AA","PERIOD":"95.439","ECCENTRICITY":"0.00013670","REV_AT_EPOCH":"2170","TLE_LINE1":"1 51980U 22025AA  22201.91668981  .00003542  00000-0  24070-3 0  9999","CLASSIFICATION_TYPE":"U","SITE":"AFETR","OBJECT_TYPE":"PAYLOAD","PERIAPSIS":"538.878","MEAN_MOTION_DOT":"0.00003542","BSTAR":"0.00024070000000","ARG_OF_PERICENTER":"58.2831","RCS_SIZE":"LARGE","LAUNCH_DATE":"2022-03-09","SEMIMAJOR_AXIS":"6917.958"}];
